[{"OBJECT_NAME":"STARLINK-5816","OBJECT_ID":"2023-028AP","EPOCH":"2026-03-09T20:52:14.217600","MEAN_MOTION":14.98317353,"ECCENTRICITY":0.00031275,"INCLINATION":69.9999,"RA_OF_ASC_NODE":223.8557,"ARG_OF_PERICENTER":268.811,"MEAN_ANOMALY":91.269,"EPHEMERIS_TYPE":0,"CLASSIFICATION_TYPE":"U","NORAD_CAT_ID":55778,"ELEMENT_SET_NO":999,"REV_AT_EPOCH":16656,"BSTAR":6.7909651e-5,"MEAN_MOTION_DOT":7.17e-6,"MEAN_MOTION_DDOT":0},{"OBJECT_NAME":"CZ-4C R\/B","OBJECT_ID":"2021-079B","EPOCH":"2026-03-09T14:04:29.438112","MEAN_MOTION":15.08928015,"ECCENTRICITY":0.0108377,"INCLINATION":98.3883,"RA_OF_ASC_NODE":282.6111,"ARG_OF_PERICENTER":26.1585,"MEAN_ANOMALY":334.506,"EPHEMERIS_TYPE":0,"CLASSIFICATION_TYPE":"U","NORAD_CAT_ID":49123,"ELEMENT_SET_NO":999,"REV_AT_EPOCH":24640,"BSTAR":0.00023549,"MEAN_MOTION_DOT":4.178e-5,"MEAN_MOTION_DDOT":0}]
